#,Name,Black Owned Confirmed?,Area,Direct Venmo/Donation Option/Giftcard,Cuisine/ Shop type,Website,Instagram,FB,Twitter,YouTube,Delivery Options,Combined Address,Street Address,City,State,Zipcode,Email Address,Phone
1,Rock City Pizza,Confirmed,Allston,,American,https://rockcitypizzeria.com/,https://www.instagram.com/rockcitypizzaallston/,https://www.facebook.com/RockCityPizzeria/,n/a,n/a,,"568 Cambridge St, Boston, MA 02134",568 Cambridge St,Allston,MA,2134,,
4,TamBos Kitchen,Unconfirmed,Avon,,West African,https://tamboskitchen.com/,https://www.instagram.com/tamboskitchen/,https://www.facebook.com/tamboskitchen/,n/a,https://www.youtube.com/channel/UCfh-OI9DB3WtmvQp4Vadk6w,Local ,"490 W Main St, Avon, MA 02322",490 W Main St,Avon,MA,2322,,
5,Restaurante Cesaria,Confirmed,Boston,,African/ Cape Verdean,https://www.restaurantcesaria.com/,https://www.instagram.com/restaurantecesaria/,https://www.facebook.com/RestaurantCesaria/,n/a,n/a,"Doordash, grubhub, ubereats","266 Bowdoin St, Boston, MA 02122",266 Bowdoin St,Boston,MA,2122,,
6,Bred Gourmet,Confirmed,Boston,http://www.bredgourmet.com/shopbred/bred-gift-card,American,http://www.bredgourmet.com/,https://www.instagram.com/bredgourmet/,https://www.facebook.com/BREDGOURMET/,https://twitter.com/BredGourmet,n/a,Grubhub,"2255 Dorchester Ave, Boston, MA 02124",2255 Dorchester Ave,Boston,MA,2124,,6176980103
7,Darryl's Corner Bar and Kitchen,Confirmed,Boston,https://www.toasttab.com/darryls-corner-bar-kitchen/giftcards / https://blackhospitalityco.com/,American,http://dcbkboston.com/,https://www.instagram.com/dcbkboston/,https://www.facebook.com/DCBKBoston/,https://twitter.com/DCBKBoston,n/a,Grubhub,"604 Columbus Ave, Boston, MA 02118",604 Columbus Ave,Boston,MA,2118,,6175361100
8,District 7 Tavern,Confirmed,Boston,https://blackhospitalityco.com/,American,https://www.facebook.com/District7Tavern/,https://www.instagram.com/discovervegans/,https://www.facebook.com/District7Tavern/,https://twitter.com/discovervegans,n/a,Pick Up ,"380 Warren St, Roxbury, MA 02119",380 Warren St,Roxbury,MA,2119,district7tavern@gmail.com,
9,Food for the Soul,Confirmed,Boston,,American,n/a,https://www.instagram.com/foodforthesoul9/,https://www.facebook.com/bostonsoulfood/,n/a,n/a,"Ubereats, Grubhub","651 Warren St, Boston, MA 02121",651 Warren St,Boston,MA,2121,,
10,Slades Bar and Grill,Confirmed,Boston,,American,http://www.sladesbarandgrill.com,n/a,https://www.facebook.com/Slades.Boston/,https://twitter.com/Slades_BarGrill,n/a,"Doordash, seamless","958 Tremont St, Boston, MA 02120",958 Tremont St,Boston,MA,2120,,
11,Wally's Café,Confirmed,Boston,"https://blackhospitalityco.com/
https://www.gofundme.com/f/wally039s-jazz-cafe-student-to-student-music-project?utm_source=customer&utm_medium=copy_link&utm_campaign=p_cf+share-flow-1",American,http://www.wallyscafe.com/index.html,https://www.instagram.com/wallyscafeboston/,https://www.facebook.com/pages/Wallys-Cafe-Jazz-Club-Boston-MA/332972676732064,n/a,n/a,,"427 Massachusetts Ave, Boston, MA 02118",427 Massachusetts Ave,Boston,MA,2118,,6174241408
11,Maxine's on Saint James,Unconfirmed,Boston,,American,https://www.maxinesonstjames.com/,https://www.instagram.com/maxonstjames/,https://www.facebook.com/Yourfoodourpassion/,n/a,n/a,"Grubhub,Seamless,Doordash, Postmates",,304 Dudley St,Boston,MA,2119,,
12,Top Mix Bar & Kitchen,Unconfirmed,Boston,,American,https://www.topmixbar.com/,https://www.instagram.com/topmixbar/,https://www.facebook.com/TopMixBarandKitchen/,n/a,n/a,"Uberets, grubhub","257 Norfolk Ave, Boston, MA 02119",257 Norfolk Ave,Boston,MA,2119,,
48,Caked,Confirmed,Boston,,Bakery,www.cakedboston.com,,,,,,,,Boston,MA,,info@cakedboston.com,617-221-8224
49,Clarke's Cakes and Cookies,Confirmed,Boston,$Vegan3Cs (cashapp),Bakery,https://www.clarkescakesandcookies.com/,https://www.instagram.com/clarkescakesandcookies/,https://www.facebook.com/Clarkes-Cakes-Cookies-990994454425625/,https://twitter.com/cakes_clarke,n/a,Local ,"196 Quincy St, Boston, MA 02121",196 Quincy St,Boston,MA,2121,,7816618623
50,Sweet Teez Bakery ,Confirmed,Boston,,Bakery ,https://www.sweetteezbakery.com/,https://www.instagram.com/sweetteezbakery/,https://www.facebook.com/sweetteezbakery/?ref=settings,https://twitter.com/SweetTeezBakery,n/a,,,,,MA,,,
51,Family Affair Catering,Confirmed,Boston,,Caribbean,https://famaffairboston.wixsite.com/mysite,https://www.instagram.com/famaffairboston/,https://www.facebook.com/FamAffairBoston/,n/a,n/a,Seamless,"554 Columbia Rd, Dorchester, MA 02125",554 Columbia Rd,Dorchester,MA,2125,,
52,Flames Restaurant,Confirmed,Boston,,Caribbean,http://flamesjamaicanrestaurants.com/,https://www.instagram.com/flamesrestaurant_/,https://www.facebook.com/Flames-Restaurant-116810905012950/,n/a,n/a,,"469 Blue Hill Ave, Boston, MA 02121",469 Blue Hill Ave,Boston,MA,2121,,
53,Flames Restaurant II,Confirmed,Boston,,Caribbean,http://flamesjamaicanrestaurants.com/,n/a,https://www.facebook.com/pages/Flames-Restaurant-II-Inc/120983514581739,,,,"746 Huntington Ave, Boston, MA 02115",746 Huntington Ave,Boston,MA,2115,,
54,Fresh Food Generation,Confirmed,Boston,,Caribbean,http://www.freshfoodgeneration.com/,https://www.instagram.com/freshfoodgeneration/,https://www.facebook.com/FreshFoodGeneration/,https://twitter.com/ffgeneration?lang=en,n/a,EzCater,"196 Quincy St, Boston, MA 02125",196 Quincy St,Boston,MA,2125,,
55,Oasis Vegan Veggie Parlor,Confirmed,Boston,,Caribbean,https://boston.eater.com/2017/9/19/16333282/oasis-vegan-veggie-parlor-dorchester,https://www.instagram.com/oasisvvp/,https://www.facebook.com/OasisVeganVeggieParlor/,n/a,n/a,"Grubhub, Doordash","340 Washington St, Boston, MA 02121",340 Washington St,Boston,MA,2121,,
56,Savvor Restaurant and Lounge,Confirmed,Boston,,Caribbean,http://www.savvorbostonlounge.com,https://www.instagram.com/savvorboston/,https://www.facebook.com/savvorbostonlounge/,https://twitter.com/intent/user?screen_name=savvorboston,n/a,Doordash,"180 Lincoln St, Boston, MA 02111",180 Lincoln St,Boston,MA,2111,,
57,Zaz Restaurant,Confirmed,Boston,,Caribbean,http://www.zazrestaurant.com,https://www.instagram.com/zazrestaurant/,https://www.facebook.com/ZAZRestauranthydepark,https://twitter.com/zazrestaurant,n/a,Grubhub,"1238 River St, Boston, MA 02136",1238 River St,Boston,MA,2136,,
58,Oasis Cafe,Confirmed,Boston,,Carribean,http://places.singleplatform.com/oasis-cafe-58/menu?ref=google,,,,,,,,,MA,,,
59,MIDA Restaurant,Confirmed,Boston,https://www.toasttab.com/mida/giftcards,Italian,https://www.midaboston.com,https://www.instagram.com/midaboston/,https://www.facebook.com/mida.boston,https://twitter.com/midarestaurant,n/a,"Caviar, Doordash, toasttab","782 Tremont St, Boston, MA 02118",782 Tremont St,Boston,MA,2118,,6179363490
60,Ideal Sub Shop,Confirmed,Boston,,Sandwiches,n/a,https://www.instagram.com/idealssubshop/,https://www.facebook.com/pages/Ideals-Sub-Shop/204762512890620,n/a,n/a,Seamless,"522 Dudley St, Roxbury, MA 02119",522 Dudley St,Roxbury,MA,2119,,
61,Teranga,Confirmed,Boston,,Senegalese,,,,,,,,,,MA,,,
62,JP Roti Shop,Confirmed,Boston,,Trinidadian,n/a,https://www.instagram.com/j.protishop/,https://www.facebook.com/JP-ROTI-SHOP-1106702066057742/,n/a,n/a,"Doordash, Postmates,","482 Washington St, Boston, MA 02124",482 Washington St,Boston,MA,2124,,
63,Urban Grape,Confirmed,Boston,n/a,Wine Shop,http://theurbangrape.com/,https://www.instagram.com/urbangrape/,https://www.facebook.com/urbangrape,https://twitter.com/urbangrape,https://www.youtube.com/user/TheUrbanGrape,,"303 Columbus Ave, Boston, MA 02116",303 Columbus Ave,Boston,MA,2116,,8572502509
64,Reveille Trading Company,Unconfirmed,Boston,,Beverage Company,https://www.reveille.io/,,,,,,"6595 Roswell Rd Suite G-3066, Atlanta, GA 30328",6595 Roswell Rd Suite G-3066,Atlanta,MA,30328,,
65,Shea Butter Smoothies,Confirmed,Boston,,,https://www.yelp.com/biz/shea-butter-smoothies-boston,https://www.instagram.com/sheabuttersmoothies/,https://www.facebook.com/pages/Shea-Butter-Smoothies/181263279060971,n/a,n/a,"Grubhub, Ubereats","1556 Blue Hill Avenue, Mattapan, MA 02126",1556 Blue Hill Avenue,Mattapan,MA,2126,,
66,Blue Mountain Jamaican Restaurant,Unconfirmed,Boston,@bluemountainja (cashapp),Caribbean,http://bluemountainjamaicanrestaurant.com/,https://www.instagram.com/bluemountainjamaicanrestaurant/,https://www.facebook.com/Blue-Mountain-Jamaican-Restaurant-107603503931028/,n/a,n/a,"Grubhub, Seamless","884 Morton St, Boston, MA 02126",884 Morton St,Boston,MA,2126,,6175337255
67,Country Kitchen,Unconfirmed,Boston,,Caribbean,https://www.yelp.com/biz/country-kitchen-dorchester-center,n/a,https://www.facebook.com/countrykitchen838/,n/a,n/a,"Ubereats, GrubHub","838 Blue Hill Ave, Boston, MA 02124",838 Blue Hill Ave,Boston,MA,2124,,
68,Taste of Eden,Unconfirmed,Boston,,Caribbean,http://www.tasteofedenjamerican.net/,n/a,https://www.facebook.com/tasteofeden7/,n/a,n/a,"doordash, seamless, grubhub, ubereats","38 Norfolk Street, Boston, MA 02124",38 Norfolk Street,Boston,MA,2124,,
69,Murl's Kitchen,Unconfirmed,Boston,,Caribbean,https://www.yelp.com/biz/murls-kitchen-boston,n/a,https://www.facebook.com/murlskitchen/,n/a,n/a,"uber, postmates","143 Washington St, Dorchester, MA 02121",143 Washington St,Dorchester,MA,2121,,
70,Silver Slipper Restaurant,Unconfirmed,Boston,,Diner,https://www.yelp.com/biz/silver-slipper-restaurant-roxbury,https://www.instagram.com/thesilverslipper/,https://www.facebook.com/pages/Silver-Slipper-Restaurant/105921002783527,n/a,n/a,Grubhub,"2387 Washington St, Roxbury, MA 02119",2387 Washington St,Roxbury,MA,2119,,
71,Farmer Horse Coffee,Unconfirmed,Boston,,Ethiopian/Cafe,n/a,n/a,https://www.facebook.com/FarmerHorse/,n/a,n/a,"Grubhub, Seamless","374 Massachusetts Ave, Boston, MA 02115",374 Massachusetts Ave,Boston,MA,2115,,
72,Discover Vegans,(Catering Service),Boston,@DiscoverVegans-V-2 (venmo),Haitian,https://www.discovervegans.co/,https://www.instagram.com/discovervegans/,https://www.facebook.com/discovervegans/,https://twitter.com/discovervegans,n/a,Ubereats,n/a,n/a,,MA,,discovervegans@gmail.com,
73,Farah's Café ,Unconfirmed,Boston,,Haitian,n/a,n/a,https://www.facebook.com/pages/Farahs-Cafe-Restaurant/434943279881816,n/a,n/a,Pick Up ,"1158 River St, Boston, MA 02136",1158 River St,Boston,MA,2136,,
74,Natif Natal,Unconfirmed,Boston,,Haitian,http://ordernatifnatal.com/,n/a,https://www.facebook.com/NatifNatal-1820248448253476/,n/a,n/a,"Grubhub, local, doordash, postmates, ubereats","830 Blue Hill Ave, Boston, MA 02124",830 Blue Hill Ave,Boston,MA,2124,,
75,Nu Flav Restaurant,Unconfirmed,Boston,,Haitian,https://nuflavtogo.com/,https://www.instagram.com/nuflavrestaurant/,https://www.facebook.com/nuflavrestaurant/,n/a,n/a,"Local, doordash, grubhub, ubereats, seamless","1100 Blue Hill Ave, Boston, MA 02124",1100 Blue Hill Ave,Boston,MA,2124,,
76,Island Style Jamaican Restaurant,Unconfirmed,Boston,,Jamaican,n/a,n/a,https://www.facebook.com/islandstyle183/,n/a,n/a,Ubereats,"183 Washington St, Boston, MA 02121",183 Washington St,Boston,MA,2121,,
77,Right Taste Jamaican Restaurant,Unconfirmed,Boston,,Jamaican,https://www.restaurantji.com/ma/boston/right-taste-jamaican-restaurant-/,https://www.instagram.com/righttastejamaican/,https://www.facebook.com/pages/Right-Taste-Jamaican-Restaurant/116358465059578,n/a,n/a,"Doordash, uber eats, ","522 River St, Mattapan, MA 02126",522 River St,Mattapan,MA,2126,,
,On The Edge Nutrition,Unconfirmed,Boston,,Juice/Beverages,https://linktr.ee/OnTheEdgeNutrition,,,,,"Clover, Doordash, Grubhub, Seamless, Uber Eats","283 Old Colony Ave, Boston, MA 02127","283 Old Colony Ave,",Boston,MA,2127,,(617) 752-4056
1,Nectar Lab Boston ,Unconfirmed,Boston,@bombshell617,Juice/Beverages,,,https://www.facebook.com/NectarLabBoston/,,,,,,,MA,,,857-232-1898
2,Millenium Restaurant,Unconfirmed,Boston,,Latin/ Dominican,n/a,n/a,https://www.facebook.com/Millenium-Retaurant-Grill-514028835276795/,n/a,n/a,,"3094 Washington St, Boston, MA 02119",3094 Washington St,Boston,MA,2119,,
3,Doña Habana Restaurant,Not Black Owned,Boston,https://www.toasttab.com/dona-habana-restaurant/giftcards,Latin/Cuban,http://donahabanarestaurant.com/,https://www.instagram.com/donahabana/,https://www.facebook.com/DonaHabana/,n/a,n/a,"Grubhub, DoorDash, Toasttab","811 Massachusetts Ave, Boston, MA 02118",811 Massachusetts Ave,Boston,MA,2118,,6177081182
4,Merengue Restaurant,Unconfirmed,Boston,https://www.toasttab.com/merengue-restaurant/giftcards?utmCampaign=onlineOrdering,Latin/Dominican,http://merenguerestaurant.com/,n/a,https://www.facebook.com/merenguerestaurant,n/a,n/a,"ubereats, grubhub, toasttab","160 Blue Hill Avenue, Boston, MA 02125",160 Blue Hill Avenue,Boston,MA,2125,,6174455403
5,Lucy Ethiopian Cafe,Confirmed,"Boston, Back Bay",@Lucy-Ethiopian-Cafe,Ethiopian,http://places.singleplatform.com/lucy-ethiopian-cafe/menu?ref=google,,https://www.facebook.com/Lucy-Ethiopian-Cafe-375251434602/,,,"Grubhub, seamless, doordash,","334 Massachusetts Ave, Boston, MA 02115",334 Massachusetts Ave,Boston,MA,2115,,617-536-0415
49,Wingz and Tingz,Unconfirmed,"Boston, Dorchester, (Bridgeport, CT)",,Caribbean,https://www.wingzandtingz.com/locations-1,,,,,"Ubereats, doordash, postmates","388 Blue Hill Ave, Boston, MA 02121 and 855 Washington St, Dorchester Center, MA 02124",388 Blue Hill Ave,Boston,MA,2124,,
50,Larry J's BBQ Cafe,Confirmed,"Boston, Revere",,Barbecue,https://www.larryjsbbqcafe.com/,,,,,Grubhub,"600 D St, Boston, MA 02210 and 1148 N Shore Rd, Revere, MA 02151",600 D St,Boston,MA,2151,,
51,Rhythm 'n Wraps,Unconfirmed,Brighton,https://squareup.com/gift/320JBVH54B0ZM/order,Tacos,https://www.rhythmnwraps.com/,,,,,"Grubhub, Caviar, ubereats, seamless","1096 Commonwealth Avenue, Boston, MA 02134",1096 Commonwealth Avenue,Boston,MA,2134,rhythmnwraps@gmail.com,6175664144
52,JJ's Caffe,Confirmed,Brockton,https://www.jjscaffe.com/shop/giftcard,Breakfast,https://www.jjscaffe.com/,https://www.instagram.com/jjscafedallas/,https://www.facebook.com/jjscaffe,n/a,n/a,,"610 N Main St., Brockton, MA 02301",610 N Main St.,Brockton,MA,2301,info@jjscaffe.com,(508) 510-4227
53,Luanda,Confirmed,Brockton,,"Cape Verdean, Angolan",https://www.luandabrockton.com/,,,,,"Doordash, Ubereats","453 Centre St, Brockton, MA 02302, USA",453 Centre St,Brockton,MA,,,
54,Flava Jamaica,Unconfirmed,Brockton,,Jamaican,https://www.flavajamaicarestaurant.com/index.php,,,,,Pick up,"21 Torrey St., Brockton, MA 02301  ",21 Torrey St.,Brockton,MA,301,,
55,Tamboo Bistro ,Confirmed,Brockton ,,Haitian ,https://www.ubereats.com/boston/food-delivery/tamboo-bistro/HxgKrB2FSlWpbxT2yQKb5w?utm_source=google&utm_medium=organic&utm_campaign=place-action-link,,,,,"Ubereats, doordash",,,,MA,,,
56,Jamaica Best Bar + Grill ,Unconfirmed,Brocktown,,Jamaican,https://jamaicas-best.hub.biz/?fbclid=IwAR1ZaEZU7e76zA_xlO4vp6agWdgEX3H1o0I3BxvTt6KKgw3C_zaoje1mnhA,,https://www.facebook.com/Jamaicas-Best-211961072476227/,,,"Doordash,Seamless",,,,MA,,,
57,Asmara Restaurant,Confirmed,Cambridge,,Ethiopian,http://www.asmararestaurantboston.com/,n/a,https://www.facebook.com/pages/Asmara-Restaurant/113459538688828,n/a,n/a,Pick up,"739 Massachusetts Ave, Cambridge, MA 02139",739 Massachusetts Ave,Cambridge,MA,2139,,
58,Bytes Cafe,Confirmed,Cambridge,,Senegalese,,,,,,,,64 Sidney St #1,Cambridge,MA,2139,,
59,Sheger Cafe and Ethiopian Restaurant LLC,Unconfirmed,Cambridge,,Ethiopian,https://shegercafeandethiopianrestaraunt.business.site/,,,,,"Grubhub, seamless, ubereats, doordash","2376 Massachusetts Avenue, Cambridge, MA 02140",2376 Massachusetts Avenue,Cambridge,MA,2140,,
60,La Fabrica Central,Unconfirmed,Cambridge,,Latin/ Caribbean,https://www.lafabricacentral.com/,https://www.instagram.com/lafabricacentral_restaurant/,https://www.facebook.com/LaFabricaCentral/,,,"ubereats, doordash","450 Massachusetts Ave, Cambridge MA 02139",450 Massachusetts Ave,Cambridge MA 02139,MA,2139,,
61,Izzy's Restaurant & Sub Shop,Unconfirmed,Cambridge,,Puerto Rican / Creole,http://www.izzysrestaurantcambridge.com/,,,,,Pick up,"169 Harvard St, Cambridge, MA 02139",169 Harvard St,Cambridge,MA,2139,,
62,Baraka Cafe,Unconfirmed,Cambridge,,Tunisian / Moroccan / North African,https://www.barakacuisine.com/,https://www.instagram.com/barakacafecambridge/,https://www.facebook.com/barakacafe1998/,n/a,n/a,,"1728 MASSACHUSETTS AVENUE, CAMBRIDGE, MA 02138",1728 MASSACHUSETTS AVENUE,CAMBRIDGE,MA,2138,,
63,The Coast Café,Confirmed,Cambridge,,American,http://www.coastsoulcafe.com/,https://www.instagram.com/coastsoulcafe/,https://www.facebook.com/thecoastcafe/,n/a,n/a,GrubHub,"233 River Street | Cambridge, MA 02139",233 River Street | Cambridge,Cambridge,MA,2139,,
64,Oggi Gourmet,Unconfirmed,Cambridge,,Pizzeria,http://www.oggigourmet.com/,n/a,https://www.facebook.com/bostonoggi,https://twitter.com/oggigourmet,n/a,,"30 Dunster St., Cambridge",30 Dunster Street,Cambridge,MA,2138,bostonoggi@yahoo.com,(617) 492-6444 
65,The Little Crêpe Café,Confirmed,Cambridge,,American,https://www.littlecrepecafe.com/,https://www.instagram.com/littlecrepecafe/,https://www.facebook.com/LittleCrepeCafe/,n/a,n/a,"Doordash, grubhub,seamless","102 Oxford Street, Cambridge, MA",102 Oxford Street,Cambridge,MA,,,
66,Antonio's Pizzeria ,Unconfirmed,Dorchester,,American,,,https://www.facebook.com/antoniospizzeria.dot/,,,"Grubhub, Seamless, Doordash, Slicelife","1508 Dorchester Ave, Dorchester, MA 02122",1508 Dorchester Ave,Dorchester,MA,2122,,
67,One Family Dinner,Unconfirmed,Dorchester,,American,,,https://www.facebook.com/Levis323/,,,Ubereats,,,,MA,,,
68,The Rotisserie,Unconfirmed,Dorchester,,American,http://www.rotisseriedorchester.com/,,,,,Grubhub,,,,MA,,,
69,Vaughan Fish & Chips,Unconfirmed,Dorchester,,American,,,https://www.facebook.com/pages/Vaughan-Fish-Chips/100849106625946,,,Ubereats,,,,MA,,,
70,Down Home Delivery and Catering,Confirmed,Dorchester,,American,http://www.downhomedelivery.com/,,,,,"Pick up, catering",,,,MA,,,
71,Family Affair Catering,Confirmed,Dorchester,,American,https://famaffairboston.wixsite.com/mysite/,,,,,"Seamless, grubhub, ubereats",,,,MA,,,
72,Auntie Vie's Bakery Cafe,Confirmed,Dorchester,,Bakery,n/a,n/a,https://www.facebook.com/pages/category/Bakery/Auntie-Vies-Bakery-Cafe-152960008211429/,n/a,n/a,,,,,MA,,,
73,Bon Appetit,Unconfirmed,Dorchester,,Caribbean,https://www.yelp.com/biz/bon-appetit-restaurant-dorchester-center,,,,,"Ubereats, doordash",,,,MA,,,
74,Levi's Restaurant and Lounge,Unconfirmed,Dorchester,,Caribbean,https://www.yelp.com/biz/levis-restaurant-and-lounge-boston,,,,,,,,,MA,,,
75,Raphael's Restaurant,Unconfirmed,Dorchester,,Caribbean,https://www.raphaelsrest.com/,,,,,Ubereats,,,,MA,,,
76,M & M BBQ,Confirmed,Dorchester,,Barbecue,https://www.mandmribs.com/,,,,,Ubereats,"1250 Massachusetts Ave, Dorchester, MA 02125",1250 Massachusetts Ave,Dorchester,MA,2125,,
77,Cesaria,Confirmed,Dorchester,,Cape Verde,http://restaurantecesariadorchester.cafecityguide.website/,,,,,"Doordash, grubhub, ubereats","266 Bowdoin St, Dorchester, MA 02122 ",266 Bowdoin St,Dorchester,MA,2122,,
78,`,Confirmed,Dorchester,,Coffee,,https://www.instagram.com/ripplecafe_/,,,,"Doordash, seamless, grubhub",,,,MA,,,
79,50Kitchen,Confirmed,Dorchester,https://www.toasttab.com/50kitchen/giftcards?utmCampaign=onlineOrdering,Southern/Asian Fusion,https://50kitchen.com/index.html,https://www.instagram.com/chef_50/,https://www.facebook.com/50kitchen/?ref=br_rs,@50Kitchen,https://www.youtube.com/channel/UCiPcYR_5yE70eFMn70s4U0A,"Grubhub,toasttab, ubereats",,,,MA,,,6174742433
80,Singh's Roti Shop,Confirmed,Dorchester,,Trinidadian,http://www.singhsrotishop.net/,,,,,"Doordash, EzCarter,ubereats, grubhub",,,,MA,,,
81,Irie Jamaican Style Restaurant,Unconfirmed,Dorchester,,Jamaican,http://www.iriejamaicanstylerestaurant.net/,,,,,"Doordash, ubereats","855 Washington St, Dorchester Center, MA 02124",855 Washington St,Dorchester Center,MA,2124,,
82,Ghost Pepper Taco + Tequila Bar,Unconfirmed,Dorchester,,Mexican,https://www.ghostpepperboston.com/menu,,,,,Delivery,,,,MA,,,
83,Bobby Fish ,Unconfirmed,Dorchester,,Seafood,https://zmenu.com/bobby-fish-market-boston-online-menu/,,,,,Pick up ,312 Bowdoin St,,,MA,,,
84,Only One Jamaican Restaurant,Unconfirmed,"Dorchester, Brockton, Hyde Park",,Jamaican,https://www.onlyonerestaurant.com/,,,,,Doordash,,,,MA,,,
85,Tawakal Halal Cafe,Confirmed,East Boston,@Tawakal-cafe,Somali,,https://www.instagram.com/tawakalhalalcafe,,,,"Ubereats, postmates","389 Maverick St, Boston, MA 02128",389 Maverick St,Boston,MA,2128,,6174185890
86,NoExcuse Produce Clothing ,Unconfirmed,Framingham,,Clothing Company,,,https://www.facebook.com/NoExcuseProduceClothing/,,,,,,,MA,,,
87,Nzuko,Confirmed,Framingham,,Caribbean / Mediterranean,http://nzukorestaurant.com/,https://www.instagram.com/nzukorestaurant/,https://www.facebook.com/nzukorestaurant/,n/a,n/a,Grubhub,"341 Cochituate Road Framingham, MA 01701",341 Cochituate Road,Framingham,MA,1701,,
88,67 Degrees Brewing,Unconfirmed,Franklin,,Brewery ,https://www.67degreesbrewing.com/,https://www.instagram.com/67degrees.brew/,https://www.facebook.com/67degrees.brew/,n/a,n/a,,"158 Grove St, Franklin, MA",158 Grove St,Franklin,MA, ,,
89,Au Beurre Chaud Bakery ,Unconfirmed,Hyde Park,,Haitian,https://au-beurre-chaud-bakery.hub.biz/?fbclid=IwAR0fOXL9urxcIooiTVb7O2JsRzseRAahYIwBnXy6zLI0SJE0WAe_-1-QoGM,n/a,https://www.facebook.com/pages/Au-Beurre-Chaud-Bakery/120606774617941,n/a,n/a,"Grubhub, Seamless",,,,MA,,,
90,Las Vegas Seafood ,Unconfirmed,Hyde Park,,Haitian,,,https://www.facebook.com/LasVegasHydePark/,,,"Doordash, ubereats",,,,MA,,,
91,D Coal Pot,Unconfirmed,Hyde Park,,Trinidadian,,,https://www.facebook.com/D-Coal-Pot-137261126484637/,,,Doordash,,,,MA,,,
92,Exodus Bagels,Unconfirmed,Jamaica Plain,https://www.toasttab.com/exodus-bagels-roslindale/giftcards,Breakfast,http://www.exodusbagels.com/,,,,,Toasttab,"3346 Washington St, Boston, MA 02130",3346 Washington St,Boston,MA,2130,exodusbagels@gmail.com,
93,Blue Nile Restaurant,Confirmed,Jamaica Plain,,Ethiopian,http://bluenilejp.com/,,,,,Local,"389 Centre St. Jamaica Plain, MA. 02130",389 Centre St. Jamaica Plain,,MA,2130,,
94,Yelu's,Unconfirmed,Jamaica Plain,,American,,,https://www.facebook.com/pages/Yelys-Coffee-Shop/198932653458469,,,"Grubhub, ubereats","284 Centre St, Jamaica Plain, MA 02130",284 Centre St,Jamaica Plain,MA,2130,,
95,Pikalo Restaurant,Unconfirmed,Jamaica Plain,,Latin/ Dominican,https://www.yelp.com/biz/pikalo-jamaica-plain-2,n/a,https://www.facebook.com/pages/category/Latin-American-Restaurant/Pikalo-1640133909552845/,n/a,n/a,"Ubereats, grubhub, doordash","378 Centre St, Boston, MA 02130",378 Centre St,Boston,MA,2130,,
96,Imani Massage,Unconfirmed,Jamaica Plain,,Massage,https://www.imanimassage.com/,,,,,,"3684 Washington Street, Boston, MA 02130",3684 Washington Street,Boston,MA,2130,,(617) 821-2875
97,Ethiopian Cafe,Confirmed,Jamaica Plain ,,Ethiopian,http://ethiopiancafe.business.site/,,,,,,"377 Centre St., Jamaica Plain, MA 02130",377 Centre St.,Jamaica Plain,MA,2130,,
98,Jamaica Mi Hungry,Confirmed,Jamaica Plain ,@Ernie-Campbell-5,Jamaican,https://www.jamaicamihungry.com/,,,,,Doordash,"225 Centre St, Boston, MA 02130",225 Centre St,Boston,MA,2130,,6172598017
99,Gourmet Diva,Unconfirmed,Location in MA,,Catering Company,http://www.thegourmetdiva.com/,,,,,(Seems to be in NY?),,,,MA,,,
100,Jamaica's Flavor ,Unconfirmed,Lynn,,Jamaican,https://jamaicas-flavor.business.site/,,,,,Local,"121 Pleasant St, Lynn, MA 01901",121 Pleasant St,Lynn,MA,1901,,
101,Rite Spice Caribbean,Unconfirmed,Lynn,,Jamaican,,,https://www.facebook.com/pages/category/Jamaican-Restaurant/Rite-Spice-Caribbean-447176678713240/,,,Ubereats,"532 Western Ave, Lynn, MA 01904",532 Western Ave,Lynn,MA,1904,,
102,Crazy Good Kitchen,Unconfirmed,Malden,,Burgers,https://www.crazygoodkitchen.com,,,,,"Grubhub, ubereats, seamless","906 Eastern Ave, Malden, MA 02148",906 Eastern Ave,Malden,MA,2148,,
103,Infused Kreyol,Unconfirmed,Malden,,Caribbean,https://www.yelp.com/biz/infused-kreyol-malden,,,,,"Doordash, ubereats",,,,MA,,,
104,Habesha Ethiopia Restaurant ,Unconfirmed,Malden,,Ethiopian,https://www.habeshamalden.com/,,,,,"Doordash, ubereats, grubhub, postmates",,,,MA,,,
105,Franklin International Beauty,Unconfirmed,Malden,,Nigerian,,,https://www.facebook.com/pages/category/Shopping---Retail/Franklin-International-Beauty-Store-1568987270011375/,,,,,,,MA,,,
106,Safari African Food,Unconfirmed,Mattapan,,African,http://places.singleplatform.com/safari-african-restaurant/menu?ref=google,,https://www.facebook.com/Safari-African-Restaurant-958952424167310/,,,,"1336 Blue Hill Avenue, Mattapan, MA 02126",1336 Blue Hill Avenue,Mattapan,MA,2126,,
107,Prestige Cuisine LLC,Unconfirmed,Mattapan,,African and Caribbean,n/a,,https://www.facebook.com/prestige.cuisine.7,,,Local,"924 Morton St, Boston, MA 02126",924 Morton St,Boston,MA,2126,,
108,Pit Stop Barbecue,Unconfirmed,Mattapan,,American,http://www.pitstopbarbecue.com/,,,,,Ubereats,"888 Morton St A, Mattapan, MA 02126",888 Morton St A,Mattapan,MA,2126,,
109,Golden Krust Caribbean Bakery & Grill,Unconfirmed,Mattapan,,Caribbean,http://www.goldenkrustbakery.com/,,,,,"Doordash, postmates, ubereats, grubhub",,,,MA,,,
110,Ali's Roti Restaurant,Confirmed,Mattapan,,Trinidadian,n/a,n/a,https://www.facebook.com/pages/category/Caribbean-Restaurant/Alis-Roti-Restaurant-163231053700708/,n/a,n/a,Local,"1188 Blue Hill Avenue, Mattapan, MA 02126",1188 Blue Hill Avenue,Mattapan,MA,2126,,
111,Le Foyer Bakery,Unconfirmed,Mattapan,,Haitian,http://www.lefoyerbakery.com/,,https://www.facebook.com/pages/Le-Foyer-Bakery/111731602196380,,,,,,,MA,,,617-298-0535
112,Cafe Juice Up,Unconfirmed,Mattapan,https://squareup.com/gift/A94WYN7N0HNJR/order,Juice Bar,https://cafejuiceup.com/,,,,,"Doordash, grubhub, postmates, ubereats",,,,MA,,,6177021808
113,P&R Jamaican Restaurant,Unconfirmed,"Mattapan, Roxbury",,Jamaican,https://www.eatpandr.com/,,,,,"Doordash, postmates, ubereats, grubhub",,,,MA,,,
114,Neighborhood Kitchen,Confirmed,Medford,,Caribbean,https://www.nkboston.com/,,,,,"Doordash, postmates, ubereats, grubhub",,,,MA,,,
115,Larry Joe's New England FirePit,Confirmed,Mendon,,American / Hot dogs,,,https://www.facebook.com/ljnefp/,,https://www.youtube.com/watch?v=PSuL84h7Dbc,"Call ahead for pickup, GrubHub, Uber Eats","30 Cape Rd, Mendon, Massachusetts 01756",30 Cape Rd,Mendon,MA,1756,,(508) 735-9006
116,French Press Bakery & Cafe,Unconfirmed,Needham,,Bakery,https://www.frenchpressbakery.com/,,,,,Ubereats,"74 Chapel St, Needham, MA 02492",74 Chapel St,Needham,MA,2492,,
117,Walnut Grille,,Newton,,vegan/vegetarian,http://walnutgrille.com/,,,,,,1203 Walnut Street,,,MA,,,
118,Fleurcuisine_,Unconfirmed,North Andover,,Haitian,,https://www.instagram.com/fleurcuisine_/,https://www.facebook.com/Fleur-Cuisine-106391734384620/,,,,Not to be confused with Fleur de Cuisine.  The seafood is to die for.,,,MA,,,
119,Oasis Caribbean Cuisine,Unconfirmed,Norwood,,Caribbean,http://oasisnorwood.com/,https://www.instagram.com/oasiscaribbeancuisine/,https://www.facebook.com/walnutgrille/,,,Local,,,,MA,,info@oasisnorwood.com,
120,Gather,Confirmed,Pembroke,,Breakfast & Lunch - Local Ingredients,https://gatherandeat.com/,https://www.instagram.com/gatherpembroke/,https://www.facebook.com/GatherPembroke/,n/a,n/a,Pick up,"35 School St. Pembroke, MA 02359",35 School St,Pembroke,MA,2359,,
121,MADJACKS BBQ,Unconfirmed,Pittsfield,,BBQ,http://www.madjacksbbqonline.com,,,,,Call for catering,,,,MA,,,
122,Smoky Divas,Unconfirmed,Pittsfield,,BBQ,https://www.92ndsauce.com,,,,,Doordash,,,,MA,,,
123,Romans,Unconfirmed,Pittsfield,,Latin American,,,,,,,,,,MA,,,
124,Crue Brew Brewery,Unconfirmed,Raynham,,Brewery ,https://cruebrewbrewery.com,,,,,,"95 Ryan Dr. #6 Raynham, MA 02767",95 Ryan Dr. #6 Raynham,MA 02767,MA,2767,,
125,Kinfolks Smokin BBQ,Confirmed,Raynham,,Soul food,,,https://www.facebook.com/pg/kinfolks.bbq/about/?ref=page_internal,,,Pick up/ catering,,,,MA,,,
126,Obosa Restuarant ,Unconfirmed,Roslindale,,Nigerian,http://www.obosafoods.com/,,,,,"Ubereats, seamless",,,,MA,,,
127,Suya Joint,Unconfirmed,Roxbury,,African/ Nigerian,https://www.ordersuyajoint.com/#/,,,,,"Grubhub, Doordash, Ubereats","185 Dudley St, Boston, MA 02119",185 Dudley St,Boston,MA,2119,,
128,Anshur Restaurant,Unconfirmed,Roxbury,,African/ Somali,https://boston.eater.com/2016/5/24/11759446/ashur-restaurant-roxbury,n/a,https://www.facebook.com/pages/Anshur-Restaurant/116243671737007,n/a,n/a,"Doordash, grubhub, postmates, seamless, ubereats",,,,MA,,,
129,The Breakfast Spot,Unconfirmed,Roxbury,,Breakfast,,,https://www.facebook.com/TBS617/,,,,,,,MA,,,
130,Fort Hill Bar and Grill,Unconfirmed,Roxbury,,Latin/Dominican,,https://www.instagram.com/forthillbarngrill/,https://www.facebook.com/forthillbarandgrill/,n/a,n/a,,,,,MA,,,
131,Ideals Sub Shop,Confirmed,Roxbury,,American,https://www.facebook.com/FamAffairBoston/,,https://www.facebook.com/FamAffairBoston/,,,,,,,MA,,,
132,Soleil,Confirmed,Roxbury,"https://blackhospitalityco.com/
@cheryl-Straughter",American,https://www.soleilboston.com/,https://www.instagram.com/soleilboston617/,https://www.facebook.com/soleilboston/,https://twitter.com/SoleilRest617,n/a,"Grubhub, Doordash, Seamless",,,,MA,,,6174519000
133,Nos Casa Cafe,Confirmed,Roxbury,,Cape Verdean ,https://www.yelp.com/biz/ dayib-cafe-roxbury,https://www.instagram.com/noscasacafe/,https://www.facebook.com/noscasacafe/,n/a,n/a,"Grubhub, ubereats",,,,MA,,,
134,Dayib Cafe,Confirmed,Roxbury,,East African,https://www.yelp.com/biz/dayib-cafe-roxbury,,,,,"Doordash, Ubereats",,,,MA,,,
135,Bintimani Restaurant,Confirmed,Roxbury,,West African,http://bintimani.com,https://www.instagram.com/bintimaniboston/,n/a,n/a,n/a,,"1227 Harrison Ave, Boston, MA",1227 Harrison Ave,Boston,MA,,,
136,Frugal (bookstore),Confirmed,Roxbury ,,Bookstore,https://frugalbookstore.net/,,,,,,,,,MA,,,
137,Tanam,Confirmed,Somerville,,Filipinix American,https://tanam.co/#menu-section,,,,,None,"1 Bow Market Suite 17, Somerville MA 02143",1 Bow Market Suite 17,Somerville MA 02143,MA,2143,,
138,Sunrise Cuisine,Unconfirmed,Somerville,,Carribean - Haitian ,,,https://www.facebook.com/pages/Sunrise-Cuisine-Inc/207922045909766,,,Grubhub,,,,MA,,,
139,Koshari Mama ,Unconfirmed,Somerville,,Egyptian/North African,,,,,,local,,,,MA,,,
140,Pikliz International Kitchen,Unconfirmed,Somerville,,Haitian,http://www.piklizint.com/,https://www.instagram.com/piklizintl/,https://www.facebook.com/piklizinternationalkitchen/,,,Ubereats,"288 Broadway, Somerville, MA 02145",288 Broadway,Somerville,MA,2145,,617-625-6255
141,Sunrise Caribbean Cuisine,Unconfirmed,Somerville,,Haitian,http://www.sunrisecuisine.net/,,,,,Pickup,"76 Middlesex Ave, Somerville, MA 02145",76 Middlesex Ave,Somerville,MA,2145,,
142,Highland Creole Cuisine,Unconfirmed,Somerville,,Haitian,,,https://www.facebook.com/pages/Highland-Creole-Cuisine/123279747730812,,,"Grubhub, Doordash, Ubereats","2 Highland Ave, Somerville MA 02143",2 Highland Ave,Somerville MA 02143,MA,2143,,
143,Tipping Cow,Unconfirmed,Somerville,@ Tipping-Cow/  https://www.tippingcowicecream.com/shop https://squareup.com/gift/C9BS7VF9AXGM6/order,Ice Cream,https://www.tippingcowicecream.com/,https://www.instagram.com/tippingcowicecream/,https://www.facebook.com/tippingcow/,https://twitter.com/TippingCowMA,n/a,none,"415 Medford Street, Medford MA 02145",415 Medford Street,Medford MA 02145,MA,2145,,617-718-0558
144,Morroccan Hospitality,Unconfirmed,Somerville,,Moroccan,http://www.themoroccanhospitality.com,,,,,Ubereats,"585 Somerville Ave, Somerville, MA 02143",585 Somerville Ave,Somerville,MA,2143,,
145,Petsi Pies,Confirmed,Somerville,,Bakery/Coffee Shop,https://petsipies.com/,https://www.instagram.com/petsipies/,https://www.facebook.com/petsipies/,https://twitter.com/petsipies,n/a,Local,"285 Beacon Street Somerville, MA 02143",285 Beacon Street Somerville,MA 02143,MA,2143,,
145,Fasika Ethiopian Restaurant,Confirmed,Somerville/Cambridge,,Ethiopian,https://www.fasikaethiopian.com/,,,,,None,"145 Broadway, Somerville, MA 02145",145 Broadway,Somerville,MA,2145,,
146,Muqueca Restaurant,Unconfirmed,Somerville/Cambridge,,Latin/ Brazilian,https://muquecarestaurant.net/,,,,,"Doordash, postmates","1008 Cambridge St, Cambridge MA 02141",1008 Cambridge St,Cambridge MA 02141,MA,2141,,
147,Vejigantes Restaurant,Unconfirmed,"South End, Boston",https://www.toasttab.com/vejigantes-restaurant/giftcards,Latin/ Puerto Rican,http://www.vejigantesrestaurant.com/,,,,,"Grubhub, doordash, ubereats","57 W Dedham St, Boston, MA 02118",57 W Dedham St,Boston,MA,2118,,6172479249
148,White Lion Brewery ,Unconfirmed,Springfield ,,Brewery ,https://whitelionbrewing.com/,https://www.instagram.com/whitelionbrewing/,https://www.facebook.com/WhiteLionBrewing,https://www.instagram.com/whitelionbrewing/,n/a,local,"1500 Main St, Springfield, MA",1500 Main St,Springfield,MA,,,
149,Ore - A Love Story ,Unconfirmed,Stoughton,,American,,,https://www.facebook.com/orelovestory/,,,Pick up ,,,,MA,,,
150,Morrell's BBQ-Catering Only,Confirmed,Stoughton,,BBQ,,,,,,,,,,MA,,,
151,Brazo Fuerte ,Unconfirmed,Watertown,,Brewery ,http://brazo-fuerte.squarespace.com/,https://www.instagram.com/brazofuertebeer/,https://www.facebook.com/brazofuertebeer/,https://twitter.com/BrazoFuerteBeer,n/a,local,,,,MA,,,
152,Viva Mi Arepa,Unconfirmed,West Roxbury,,Haitian/Venezuelan ,https://www.vivamiareparestaurant.com/,,,,,"Grubhub, uber eats","5197 Washington Street
Boston, MA 02132","5197 Washington Street
Boston",MA 02132,MA,2132,,
153,Belmont Vegetarian,Unconfirmed,Worcester,,Caribbean,https://www.belmontvegetarian.com/index.html,https://www.instagram.com/belmontvegetarian_/,https://www.facebook.com/BelmontVegetarianRestaurant,https://twitter.com/belmontveg1,n/a,Pick up,"157 Belmont St, Worcester, MA 01605",157 Belmont St,Worcester,MA,1605,,
154,Fatima's Cafe,Unconfirmed,Worcester,,East African / Ethiopian,http://www.fatimascafe.com/,,,,,"Pick up, catering","43 West Boylston St, Worcester, MA",43 West Boylston St,Worcester,MA,,,
155,Anokye Krom,Unconfirmed,Worcester,,Ghanaian / West African ,https://www.doordash.com/store/anokye-krom-african-american-restaurant-worcester-305324/en-US,n/a,https://www.facebook.com/pages/Anokye-Krom/131265606925958,n/a,n/a,Doordash,"687 Millbury St, Worcester, MA 01607",687 Millbury St,Worcester,MA,1607,,